     2.10           NAVIGATION                              RINEX VERSION / TYPE
fic2rin                                 08/05/2008 04:17:05 PGM / RUN BY / DATE
                                                            END OF HEADER
31 08  8  4 14  0  0.0 -.250097364187D-04  .000000000000D+00  .000000000000D+00
     .320000000000D+02  .462500000000D+02  .472591113888D-08  .139266590919D+01
     .222213566303D-05  .664251868147D-02  .428780913353D-05  .515378813171D+04
     .136800000000D+06  .335276126862D-07  .172347234872D+01 -.163912773132D-06
     .968490973216D+00  .298531250000D+03 -.122078512150D+01 -.828498796015D-08
     .213223167315D-09  .100000000000D+01  .149100000000D+04  .000000000000D+00
     .240000000000D+01  .000000000000D+00 -.130385160446D-07  .320000000000D+02
     .129606000000D+06  .400000000000D+01
32 08  8  4 14  0  0.0  .311545096338D-03  .216004991671D-11  .000000000000D+00
     .510000000000D+02 -.539062500000D+02  .441875548747D-08  .247229092873D+01
    -.298395752907D-05  .139080930967D-01  .764057040215D-05  .515380569839D+04
     .136800000000D+06  .195577740669D-06 -.282514599410D+00 -.428408384323D-07
     .968397508843D+00  .237625000000D+03 -.130245337031D+01 -.784318384295D-08
    -.437518224390D-09  .100000000000D+01  .149100000000D+04  .000000000000D+00
     .240000000000D+01  .000000000000D+00 -.279396772385D-08  .510000000000D+02
     .129606000000D+06  .400000000000D+01
30 08  8  4 13 59 44.0  .893967226148D-04  .193267624127D-11  .000000000000D+00
     .180000000000D+03 -.848750000000D+02  .513307095587D-08 -.101409467650D+01
    -.436976552010D-05  .109306825325D-01  .586174428463D-05  .515370130920D+04
     .136784000000D+06 -.124797224998D-06  .273409398601D+01  .204890966415D-06
     .949598562409D+00  .258562500000D+03  .138466614941D+01 -.862857370044D-08
    -.509306928964D-09  .100000000000D+01  .149100000000D+04  .000000000000D+00
     .240000000000D+01  .000000000000D+00 -.838190317154D-08  .180000000000D+03
     .130206000000D+06  .400000000000D+01
 7 08  8  4 13 59 44.0  .464823096991D-05  .454747350886D-11  .000000000000D+00
     .100000000000D+01  .482187500000D+02  .496520682079D-08  .181123754561D+01
     .262632966042D-05  .202680693474D-02  .339932739735D-05  .515370098686D+04
     .136784000000D+06  .115483999252D-06  .172701081401D+01 -.279396772385D-07
     .963017106808D+00  .312843750000D+03  .265653183812D+01 -.851178312136D-08
     .158935191717D-09  .100000000000D+01  .149100000000D+04  .000000000000D+00
     .240000000000D+01  .000000000000D+00 -.107102096081D-07  .100000000000D+01
     .133686000000D+06  .400000000000D+01
 5 08  8  4 13 59 44.0 -.361340120435D-03 -.954969436862D-11  .000000000000D+00
     .450000000000D+02 -.820937500000D+02  .530450666828D-08 -.470332748733D+00
    -.424310564995D-05  .915524060838D-02  .531226396561D-05  .515371124268D+04
     .136784000000D+06 -.745058059692D-07  .268206427463D+01  .121071934700D-06
     .943506910084D+00  .265781250000D+03  .125180730001D+01 -.874464996406D-08
    -.468948104999D-09  .100000000000D+01  .149100000000D+04  .000000000000D+00
     .240000000000D+01  .000000000000D+00 -.419095158577D-08  .450000000000D+02
     .136206000000D+06  .400000000000D+01
13 08  8  4 13 59 44.0  .266394112259D-03  .136424205266D-11  .000000000000D+00
     .200000000000D+02  .540000000000D+02  .369943981080D-08 -.232659083313D+01
     .282563269138D-05  .379068835173D-02  .112485140562D-04  .515360091782D+04
     .136784000000D+06  .372529029846D-07  .728312592503D+00  .614672899246D-07
     .995607970908D+00  .181437500000D+03  .152496689526D+01 -.752638493271D-08
     .239295681911D-09  .100000000000D+01  .149100000000D+04  .000000000000D+00
     .240000000000D+01  .000000000000D+00 -.111758708954D-07  .200000000000D+02
     .136596000000D+06  .400000000000D+01
 5 08  8  4 15 59 44.0 -.361408106983D-03 -.943600753089D-11  .000000000000D+00
     .780000000000D+02 -.791875000000D+02  .531557855804D-08  .579821644196D+00
    -.404939055443D-05  .915616564453D-02  .577792525291D-05  .515371302223D+04
     .143984000000D+06 -.931322574615D-07  .268200143059D+01  .856816768646D-07
     .943503473690D+00  .259937500000D+03  .125181595610D+01 -.874036407125D-08
    -.492520515456D-09  .100000000000D+01  .149100000000D+04  .000000000000D+00
     .240000000000D+01  .000000000000D+00 -.419095158577D-08  .780000000000D+02
     .136806000000D+06  .400000000000D+01
 7 08  8  4 15 59 44.0  .468082726002D-05  .454747350886D-11  .000000000000D+00
     .630000000000D+02  .458750000000D+02  .492270505042D-08  .286098732027D+01
     .248476862907D-05  .202617584728D-02  .392645597458D-05  .515370295715D+04
     .143984000000D+06 -.968575477600D-07  .172694862682D+01  .128522515297D-06
     .963019182689D+00  .305468750000D+03  .265694930520D+01 -.843177978890D-08
     .365729519817D-09  .100000000000D+01  .149100000000D+04  .000000000000D+00
     .240000000000D+01  .000000000000D+00 -.107102096081D-07  .630000000000D+02
     .136806000000D+06  .400000000000D+01
13 08  8  4 15 59 44.0  .266404356807D-03  .136424205266D-11  .000000000000D+00
     .210000000000D+02  .433125000000D+02  .359586406789D-08 -.127605539685D+01
     .244379043579D-05  .378995598294D-02  .112969428301D-04  .515360342979D+04
     .143984000000D+06 -.130385160446D-07  .728258346038D+00  .726431608200D-07
     .995609547934D+00  .186187500000D+03  .152464924015D+01 -.755995775973D-08
     .238938524177D-09  .100000000000D+01  .149100000000D+04  .000000000000D+00
     .240000000000D+01  .000000000000D+00 -.111758708954D-07  .210000000000D+02
     .136806000000D+06  .400000000000D+01
 2 08  8  4 16  0  0.0  .197270885110D-03 -.272848410532D-11  .000000000000D+00
     .740000000000D+02  .560625000000D+02  .509092634323D-08 -.180245698110D+01
     .301003456116D-05  .874006503727D-02  .512786209583D-05  .515375538445D+04
     .144000000000D+06 -.109896063805D-06 -.142453899253D+01 -.186264514923D-08
     .942540500549D+00  .273125000000D+03  .261905479545D+01 -.850892585949D-08
     .409302763389D-09  .100000000000D+01  .149100000000D+04  .000000000000D+00
     .340000000000D+01  .000000000000D+00 -.172294676304D-07  .740000000000D+02
     .136806000000D+06  .400000000000D+01
 3 08  8  4 16  0  0.0  .265045091510D-03  .522959453519D-11  .000000000000D+00
     .420000000000D+02 -.249062500000D+02  .487556022951D-08 -.215431932928D+01
    -.124052166939D-05  .109213056276D-01  .121891498566D-04  .515370005798D+04
     .144000000000D+06  .335276126862D-07 -.256923478964D+01 -.135973095894D-06
     .926227362070D+00  .125000000000D+03  .829711924032D+00 -.799176146037D-08
     .510735559900D-10  .100000000000D+01  .149100000000D+04  .000000000000D+00
     .240000000000D+01  .000000000000D+00 -.419095158577D-08  .420000000000D+02
     .136806000000D+06  .400000000000D+01
 4 08  8  4 16  0  0.0 -.133510679007D-03 -.102318153949D-10  .000000000000D+00
     .100000000000D+03  .558437500000D+02  .510949854541D-08  .945286649406D+00
     .311806797981D-05  .819954730105D-02  .475160777569D-05  .515355988312D+04
     .144000000000D+06 -.100582838058D-06 -.140575918253D+01  .188127160072D-06
     .941831045261D+00  .277218750000D+03  .383991873751D+00 -.852821237713D-08
     .195365280605D-09  .100000000000D+01  .149100000000D+04  .000000000000D+00
     .240000000000D+01  .000000000000D+00 -.605359673500D-08  .100000000000D+03
     .136806000000D+06  .400000000000D+01
 6 08  8  4 16  0  0.0  .165729317814D-03  .181898940355D-11  .000000000000D+00
     .460000000000D+02 -.153437500000D+02  .477627037940D-08  .466322959034D+00
    -.651925802231D-06  .585260603111D-02  .126715749502D-04  .515373013306D+04
     .144000000000D+06 -.126659870148D-06 -.250406744777D+01 -.124797224998D-06
     .933731239437D+00  .125437500000D+03 -.161093340365D+01 -.817319758934D-08
    -.682171272315D-10  .100000000000D+01  .149100000000D+04  .000000000000D+00
     .240000000000D+01  .000000000000D+00 -.465661287308D-08  .460000000000D+02
     .136806000000D+06  .400000000000D+01
 8 08  8  4 16  0  0.0 -.164544675499D-03 -.147792889038D-11  .000000000000D+00
     .760000000000D+02  .427187500000D+02  .450733060555D-08  .204631123753D+01
     .239536166191D-05  .104169368278D-01  .396184623241D-05  .515372728920D+04
     .144000000000D+06  .130385160446D-06  .178118985341D+01  .264495611191D-06
     .984197701430D+00  .315812500000D+03  .288947025042D+01 -.823998608564D-08
     .171435712414D-09  .100000000000D+01  .149100000000D+04  .000000000000D+00
     .340000000000D+01  .000000000000D+00 -.372529029846D-08  .760000000000D+02
     .136806000000D+06  .400000000000D+01
 9 08  8  4 16  0  0.0  .846479088068D-05  .181898940355D-11  .000000000000D+00
     .159000000000D+03  .487812500000D+02  .471305346045D-08  .166329732452D+01
     .209547579288D-05  .201615871629D-01  .453367829323D-05  .515365841293D+04
     .144000000000D+06 -.111758708954D-07  .169075123517D+01 -.517815351486D-06
     .972031568514D+00  .297406250000D+03  .142858710044D+01 -.824320050525D-08
     .391444876679D-09  .100000000000D+01  .149100000000D+04  .000000000000D+00
     .240000000000D+01  .000000000000D+00 -.558793544769D-08  .159000000000D+03
     .136806000000D+06  .400000000000D+01
10 08  8  4 16  0  0.0 -.353576615453D-05 -.341060513165D-12  .000000000000D+00
     .790000000000D+02 -.484687500000D+02  .455804700381D-08 -.921294646614D+00
    -.238604843616D-05  .797405897174D-02  .711716711521D-05  .515367884254D+04
     .144000000000D+06  .145286321640D-06 -.342108712007D+00  .372529029846D-07
     .962819706494D+00  .237343750000D+03  .559486096887D+00 -.819319842246D-08
    -.352871841386D-09  .100000000000D+01  .149100000000D+04  .000000000000D+00
     .340000000000D+01  .000000000000D+00 -.232830643654D-08  .790000000000D+02
     .136806000000D+06  .400000000000D+01
